STRIX-4                 
1 60352U 24137A   26068.65404516  .00020530  00000+0  71820-3 0  9996
2 60352  43.0134 129.8162 0016840   5.2738 354.8289 15.29026223 88766
STARLINK-33547          
1 62283U 24237S   26068.39942571  .00035780  00000+0  13031-2 0  9993
2 62283  42.9953 207.0838 0000982 170.0613 190.0259 15.27589555 71275
